ES'HAIL 2               
1 43700U 18090A   26073.57357547  .00000143  00000+0  00000+0 0  9999
2 43700   0.0143 132.0856 0001088 219.1213  53.2689  1.00272024 26723
GEO-KOMPSAT-2A          
1 43823U 18100A   26073.38001069 -.00000345  00000+0  00000+0 0  9996
2 43823   0.0358  31.7652 0001616  23.6441  21.6479  1.00271065 26678
GSAT-11                 
1 43824U 18100B   26073.66585438 -.00000078  00000+0  00000+0 0  9998
2 43824   0.0624 270.8105 0005612 148.5509  66.6113  1.00272230 26530
GSAT-7A                 
1 43864U 18105A   26073.62403510  .00000026  00000+0  00000+0 0  9995
2 43864   0.0763 280.6042 0001829  71.6707 107.3606  1.00273719 26509
COSMOS 2533             
1 43867U 18107A   26072.15613013 -.00000038  00000+0  00000+0 0  9992
2 43867   0.0158 123.2166 0000662 299.4061 234.3457  1.00272220 26473
TJS-3                   
1 43874U 18110A   26073.81659181 -.00000242  00000+0  00000+0 0  9991
2 43874   2.2999  81.6462 0017403 346.0963 128.4046  1.00347042 26477
ZHONGXING-2D            
1 43920U 19001A   26073.59420222 -.00000338  00000+0  00000+0 0  9996
2 43920   0.0383 315.8124 0000582  27.3645 172.8861  1.00267605 53132
HELLAS-SAT 4 & SGS-1    
1 44034U 19007A   26073.21967669  .00000152  00000+0  00000+0 0  9992
2 44034   0.0661 128.1090 0003274  14.8787 146.9669  1.00274741 26412
GSAT-31                 
1 44035U 19007B   26073.57799549  .00000000  00000+0  00000+0 0  9994
2 44035   0.0255 154.5905 0004015 157.5732 116.0109  1.00272129 26010
NUSANTARA SATU          
1 44048U 19009A   26073.46919825 -.00000235  00000+0  00000+0 0  9990
2 44048   0.0283 137.3920 0002033 310.4335  39.1613  1.00270979 25822
ZHONGXING-6C            
1 44067U 19012A   26073.59437556 -.00000336  00000+0  00000+0 0  9997
2 44067   0.0635  67.6056 0009505 325.5221 123.4983  1.00271754 25796
WGS 10 (USA 291)        
1 44071U 19014A   26072.15422345  .00000000  00000+0  00000+0 0  9992
2 44071   0.0250 144.3397 0000453 233.7454 268.5179  1.00270837 25650
TIANLIAN 2-01           
1 44076U 19017A   26073.58380218 -.00000107  00000+0  00000+0 0  9999
2 44076   0.2942  82.3692 0002695 234.3182 142.6899  1.00272295 25706
ARABSAT-6A              
1 44186U 19021A   26073.57452881  .00000000  00000+0  00000+0 0  9992
2 44186   0.0166  14.2250 0002880 325.7769  69.4988  1.00267986 25201
BEIDOU-3 IGSO-1         
1 44204U 19023A   26073.30660372 -.00000185  00000+0  00000+0 0  9997
2 44204  58.5678  38.6256 0025602 236.0570 126.5518  1.00268202  6266
BEIDOU-2 G8             
1 44231U 19027A   26073.52582192 -.00000247  00000+0  00000+0 0  9997
2 44231   1.4168  74.2591 0011478 274.7740 156.9035  1.00273801 25138
YAMAL 601               
1 44307U 19031A   26073.43539094  .00000119  00000+0  00000+0 0  9996
2 44307   0.0039 143.8417 0002498 216.0934  17.8544  1.00273549 24969
